NORAD_CAT_ID,OBJECT_NAME,OBJECT_TYPE,EPOCH,MEAN_MOTION,ECCENTRICITY,INCLINATION,RA_OF_ASC_NODE,ARG_OF_PERICENTER,MEAN_ANOMALY,BSTAR,MEAN_MOTION_DOT,MEAN_MOTION_DDOT,TLE_LINE0,TLE_LINE1,TLE_LINE2,SEMIMAJOR_AXIS,PERIOD,APOGEE,PERIGEE,DECAYED
52126.0,STARLINK-3732,PAYLOAD,2024-02-16 20:56:14,15.08857453,0.0001589,53.2161,204.1585,88.4812,271.6362,0.00083658,0.00013058,0.0,0 STARLINK-3732,1 52126U 22029AQ  24047.87239030  .00013058  00000-0  83658-3 0  9990,2 52126  53.2161 204.1585 0001589  88.4812 271.6362 15.08857453107422,6917.827,95.436,540.791,538.593,0.0
52126.0,STARLINK-3732,PAYLOAD,2024-02-17 03:17:47,15.08846757,0.0001995,53.2146,202.9661,75.2239,284.8974,0.00035921,5.434e-05,0.0,0 STARLINK-3732,1 52126U 22029AQ  24048.13735301  .00005434  00000-0  35921-3 0  9991,2 52126  53.2146 202.9661 0001995  75.2239 284.8974 15.08846757107468,6917.86,95.437,541.105,538.345,0.0
52126.0,STARLINK-3732,PAYLOAD,2024-02-17 14:25:29,15.08844739,0.0002331,53.2163,200.8884,79.5637,280.5618,0.00027049,4.02e-05,0.0,0 STARLINK-3732,1 52126U 22029AQ  24048.60103615  .00004020  00000-0  27049-3 0  9992,2 52126  53.2163 200.8884 0002331  79.5637 280.5618 15.08844739107539,6917.866,95.437,541.343,538.118,0.0
52126.0,STARLINK-3732,PAYLOAD,2024-02-17 19:11:38,15.088422,0.0001715,53.2161,199.9969,75.9643,284.154,0.00036081,5.459e-05,0.0,0 STARLINK-3732,1 52126U 22029AQ  24048.79975529  .00005459  00000-0  36081-3 0  9996,2 52126  53.2161 199.9969 0001715  75.9643 284.1540 15.08842200107569,6917.874,95.437,540.925,538.552,0.0
52126.0,STARLINK-3732,PAYLOAD,2024-02-18 14:16:16,15.08843404,0.000176,53.2155,196.4287,73.3159,286.8026,0.00049383,7.581e-05,0.0,0 STARLINK-3732,1 52126U 22029AQ  24049.59463741  .00007581  00000-0  49383-3 0  9990,2 52126  53.2155 196.4287 0001760  73.3159 286.8026 15.08843404107689,6917.87,95.437,540.953,538.517,0.0
52126.0,STARLINK-3732,PAYLOAD,2024-02-18 19:02:25,15.08854875,0.0001499,53.2146,195.5352,77.18,282.9359,0.00083041,0.00012958,0.0,0 STARLINK-3732,1 52126U 22029AQ  24049.79335406  .00012958  00000-0  83041-3 0  9991,2 52126  53.2146 195.5352 0001499  77.1800 282.9359 15.08854875107710,6917.835,95.437,540.737,538.663,0.0
52126.0,STARLINK-3732,PAYLOAD,2024-02-19 02:59:21,15.08843363,0.0001251,53.2159,194.0467,90.1518,269.9617,0.00026534,3.938e-05,0.0,0 STARLINK-3732,1 52126U 22029AQ  24050.12455465  .00003938  00000-0  26534-3 0  9990,2 52126  53.2159 194.0467 0001251  90.1518 269.9617 15.08843363107769,6917.87,95.437,540.601,538.87,0.0
52126.0,STARLINK-3732,PAYLOAD,2024-02-19 14:07:03,15.08840235,0.0001967,53.2164,191.9644,88.8133,271.3085,0.00030482,4.566e-05,0.0,0 STARLINK-3732,1 52126U 22029AQ  24050.58823846  .00004566  00000-0  30482-3 0  9997,2 52126  53.2164 191.9644 0001967  88.8133 271.3085 15.08840235107838,6917.88,95.438,541.105,538.384,0.0
52126.0,STARLINK-3732,PAYLOAD,2024-02-19 18:53:13,15.08842998,0.0001583,53.2157,191.072,95.5514,264.5659,0.00023586,3.468e-05,0.0,0 STARLINK-3732,1 52126U 22029AQ  24050.78695737  .00003468  00000-0  23586-3 0  9992,2 52126  53.2157 191.0720 0001583  95.5514 264.5659 15.08842998107860,6917.871,95.437,540.831,538.641,0.0
52126.0,STARLINK-3732,PAYLOAD,2024-02-20 12:22:28,15.08834472,0.000168,53.2164,187.7999,100.7519,259.3662,0.00024327,3.585e-05,0.0,0 STARLINK-3732,1 52126U 22029AQ  24051.51560315  .00003585  00000-0  24327-3 0  9991,2 52126  53.2164 187.7999 0001680 100.7519 259.3662 15.08834472107976,6917.897,95.438,540.924,538.6,0.0
52126.0,STARLINK-3732,PAYLOAD,2024-02-20 15:33:14,15.08839862,0.0001667,53.2165,187.2049,100.0257,260.0923,0.00011826,1.595e-05,0.0,0 STARLINK-3732,1 52126U 22029AQ  24051.64808065  .00001595  00000-0  11826-3 0  9991,2 52126  53.2165 187.2049 0001667 100.0257 260.0923 15.08839862107994,6917.881,95.438,540.899,538.593,0.0
52126.0,STARLINK-3732,PAYLOAD,2024-02-20 18:44:00,15.08842049,0.0001518,53.2168,186.6133,92.8544,267.2622,0.00013576,1.873e-05,0.0,0 STARLINK-3732,1 52126U 22029AQ  24051.78056021  .00001873  00000-0  13576-3 0  9996,2 52126  53.2168 186.6133 0001518  92.8544 267.2622 15.08842049108016,6917.874,95.437,540.789,538.689,0.0
52126.0,STARLINK-3732,PAYLOAD,2024-02-21 15:24:00,15.08851602,0.0001442,53.2167,182.7456,93.3147,266.801,0.0003453,5.213e-05,0.0,0 STARLINK-3732,1 52126U 22029AQ  24052.64167580  .00005213  00000-0  34530-3 0  9990,2 52126  53.2167 182.7456 0001442  93.3147 266.8010 15.08851602108146,6917.845,95.437,540.707,538.712,0.0
52126.0,STARLINK-3732,PAYLOAD,2024-02-22 12:04:02,15.08841992,0.0001485,53.2167,178.8824,91.3005,268.8157,9.9054e-05,1.289e-05,0.0,0 STARLINK-3732,1 52126U 22029AQ  24053.50280105  .00001289  00000-0  99054-4 0  9997,2 52126  53.2167 178.8824 0001485  91.3005 268.8157 15.08841992108278,6917.874,95.437,540.767,538.712,0.0
52126.0,STARLINK-3732,PAYLOAD,2024-02-22 15:14:48,15.08844883,0.0001377,53.2171,178.287,87.1381,272.9769,0.00014941,2.091e-05,0.0,0 STARLINK-3732,1 52126U 22029AQ  24053.63527909  .00002091  00000-0  14941-3 0  9990,2 52126  53.2171 178.2870 0001377  87.1381 272.9769 15.08844883108297,6917.865,95.437,540.683,538.778,0.0
52126.0,STARLINK-3732,PAYLOAD,2024-02-23 13:30:11,15.08843432,0.0001318,53.2169,174.1258,92.4334,267.6809,4.0319e-05,3.54e-06,0.0,0 STARLINK-3732,1 52126U 22029AQ  24054.56263812  .00000354  00000-0  40319-4 0  9992,2 52126  53.2169 174.1258 0001318  92.4334 267.6809 15.08843432108432,6917.87,95.437,540.647,538.823,0.0
52126.0,STARLINK-3732,PAYLOAD,2024-02-23 16:40:58,15.08848203,0.0001396,53.2172,173.5331,104.2831,255.8316,0.00014802,2.069e-05,0.0,0 STARLINK-3732,1 52126U 22029AQ  24054.69511575  .00002069  00000-0  14802-3 0  9990,2 52126  53.2172 173.5331 0001396 104.2831 255.8316 15.08848203108456,6917.855,95.437,540.686,538.755,0.0
52126.0,STARLINK-3732,PAYLOAD,2024-02-24 11:45:36,15.08832815,0.0002005,53.2179,169.9661,77.4035,282.7181,2.2804e-05,7.5e-07,0.0,0 STARLINK-3732,1 52126U 22029AQ  24055.49000844  .00000075  00000-0  22804-4 0  9998,2 52126  53.2179 169.9661 0002005  77.4035 282.7181 15.08832815108577,6917.902,95.438,541.154,538.38,0.0
52126.0,STARLINK-3732,PAYLOAD,2024-02-24 13:20:59,15.08835074,0.0001559,53.2173,169.6681,90.9353,269.1818,5.8083e-05,6.36e-06,0.0,0 STARLINK-3732,1 52126U 22029AQ  24055.55624745  .00000636  00000-0  58083-4 0  9998,2 52126  53.2173 169.6681 0001559  90.9353 269.1818 15.08835074108583,6917.895,95.438,540.839,538.682,0.0
52126.0,STARLINK-3732,PAYLOAD,2024-02-24 16:31:45,15.08839876,0.0001665,53.2174,169.072,75.8085,284.3092,0.00013059,1.791e-05,0.0,0 STARLINK-3732,1 52126U 22029AQ  24055.68872655  .00001791  00000-0  13059-3 0  9993,2 52126  53.2174 169.0720 0001665  75.8085 284.3092 15.08839876108604,6917.881,95.438,540.898,538.594,0.0
52126.0,STARLINK-3732,PAYLOAD,2024-02-25 11:36:23,15.08848159,0.0001739,53.2183,165.4975,89.9942,270.1249,0.00024036,3.54e-05,0.0,0 STARLINK-3732,1 52126U 22029AQ  24056.48360203  .00003540  00000-0  24036-3 0  9994,2 52126  53.2183 165.4975 0001739  89.9942 270.1249 15.08848159108720,6917.855,95.437,540.923,538.517,0.0
52126.0,STARLINK-3732,PAYLOAD,2024-02-25 14:47:09,15.08853671,0.0001695,53.2173,164.9082,75.8581,284.2599,0.00038592,5.861e-05,0.0,0 STARLINK-3732,1 52126U 22029AQ  24056.61607967  .00005861  00000-0  38592-3 0  9990,2 52126  53.2173 164.9082 0001695  75.8581 284.2599 15.08853671108747,6917.839,95.437,540.876,538.531,0.0
52126.0,STARLINK-3732,PAYLOAD,2024-02-25 16:22:32,15.08855845,0.0001674,53.2172,164.6104,79.4491,280.669,0.00057132,8.82e-05,0.0,0 STARLINK-3732,1 52126U 22029AQ  24056.68231955  .00008820  00000-0  57132-3 0  9996,2 52126  53.2172 164.6104 0001674  79.4491 280.6690 15.08855845108753,6917.832,95.437,540.855,538.539,0.0
52126.0,STARLINK-3732,PAYLOAD,2024-02-26 00:19:28,15.0884114,0.0001879,53.2172,163.1234,74.3875,285.7325,0.00028465,4.245e-05,0.0,0 STARLINK-3732,1 52126U 22029AQ  24057.01352729  .00004245  00000-0  28465-3 0  9991,2 52126  53.2172 163.1234 0001879  74.3875 285.7325 15.08841140108808,6917.877,95.437,541.042,538.442,0.0
52126.0,STARLINK-3732,PAYLOAD,2024-02-26 11:27:11,15.08835334,0.0002502,53.2181,161.0382,80.4591,279.6684,4.4924e-05,4.27e-06,0.0,0 STARLINK-3732,1 52126U 22029AQ  24057.47721190  .00000427  00000-0  44924-4 0  9990,2 52126  53.2181 161.0382 0002502  80.4591 279.6684 15.08835334108871,6917.895,95.438,541.491,538.029,0.0
52126.0,STARLINK-3732,PAYLOAD,2024-02-26 13:02:34,15.08830818,0.0002099,53.2191,160.7433,74.7115,285.4109,-6.4499e-05,-1.314e-05,0.0,0 STARLINK-3732,1 52126U 22029AQ  24057.54345303 -.00001314  00000-0 -64499-4 0  9993,2 52126  53.2191 160.7433 0002099  74.7115 285.4109 15.08830818108884,6917.908,95.438,541.226,538.321,0.0
52126.0,STARLINK-3732,PAYLOAD,2024-02-27 12:53:21,15.08852534,0.0001521,53.2152,156.2842,70.6722,289.4435,0.0008453,0.00013195,0.0,0 STARLINK-3732,1 52126U 22029AQ  24058.53705104  .00013195  00000-0  84530-3 0  9997,2 52126  53.2152 156.2842 0001521  70.6722 289.4435 15.08852534109036,6917.842,95.437,540.759,538.655,0.0
52126.0,STARLINK-3732,PAYLOAD,2024-02-28 00:01:02,15.08853251,0.0001521,53.2142,154.2038,65.312,294.803,0.00048545,7.449e-05,0.0,0 STARLINK-3732,1 52126U 22029AQ  24059.00072894  .00007449  00000-0  48545-3 0  9994,2 52126  53.2142 154.2038 0001521  65.3120 294.8030 15.08853251109109,6917.84,95.437,540.757,538.653,0.0
52126.0,STARLINK-3732,PAYLOAD,2024-02-28 12:44:08,15.08849193,0.0001537,53.2155,151.8239,76.3355,283.7808,0.00040364,6.143e-05,0.0,0 STARLINK-3732,1 52126U 22029AQ  24059.53064892  .00006143  00000-0  40364-3 0  9992,2 52126  53.2155 151.8239 0001537  76.3355 283.7808 15.08849193109186,6917.852,95.437,540.781,538.654,0.0
52126.0,STARLINK-3732,PAYLOAD,2024-02-29 12:34:54,15.08850706,0.000164,53.2169,147.3631,81.5263,278.5915,0.00019044,2.745e-05,0.0,0 STARLINK-3732,1 52126U 22029AQ  24060.52424667  .00002745  00000-0  19044-3 0  9998,2 52126  53.2169 147.3631 0001640  81.5263 278.5915 15.08850706109338,6917.848,95.437,540.847,538.578,0.0
